{
    "links": {
        "self": "http://www.neowsapp.com/rest/v1/neo/3175324?api_key=iIulBulltgU6a56xZRHN4H3l9WmuAYTsLGpBGhQ2"
    },
    "id": "3175324",
    "neo_reference_id": "3175324",
    "name": "(2004 CZ1)",
    "designation": "2004 CZ1",
    "nasa_jpl_url": "http://ssd.jpl.nasa.gov/sbdb.cgi?sstr=3175324",
    "absolute_magnitude_h": 24.4,
    "estimated_diameter": {
        "kilometers": {
            "estimated_diameter_min": 0.0350392641,
            "estimated_diameter_max": 0.0783501764
        },
        "meters": {
            "estimated_diameter_min": 35.0392641108,
            "estimated_diameter_max": 78.3501764334
        },
        "miles": {
            "estimated_diameter_min": 0.0217723826,
            "estimated_diameter_max": 0.0486845275
        },
        "feet": {
            "estimated_diameter_min": 114.9582192654,
            "estimated_diameter_max": 257.0543928497
        }
    },
    "is_potentially_hazardous_asteroid": false,
    "close_approach_data": [
        {
            "close_approach_date": "1939-07-25",
            "close_approach_date_full": "1939-Jul-25 06:38",
            "epoch_date_close_approach": -960571320000,
            "relative_velocity": {
                "kilometers_per_second": "24.2450336372",
                "kilometers_per_hour": "87282.1210939009",
                "miles_per_hour": "54233.7157430408"
            },
            "miss_distance": {
                "astronomical": "0.4392286572",
                "lunar": "170.8599476508",
                "kilometers": "65707671.560080164",
                "miles": "40828853.8483237032"
            },
            "orbiting_body": "Earth"
        },
        {
            "close_approach_date": "2002-06-27",
            "close_approach_date_full": "2002-Jun-27 19:36",
            "epoch_date_close_approach": 1025206560000,
            "relative_velocity": {
                "kilometers_per_second": "11.1047480473",
                "kilometers_per_hour": "39977.0929702408",
                "miles_per_hour": "24840.210906981"
            },
            "miss_distance": {
                "astronomical": "0.0291675501",
                "lunar": "11.3461769889",
                "kilometers": "4363403.368078287",
                "miles": "2711293.1285908806"
            },
            "orbiting_body": "Earth"
        },
        {
            "close_approach_date": "2004-02-24",
            "close_approach_date_full": "2004-Feb-24 16:02",
            "epoch_date_close_approach": 1077638520000,
            "relative_velocity": {
                "kilometers_per_second": "10.9443443817",
                "kilometers_per_hour": "39399.6397739958",
                "miles_per_hour": "24481.4039473476"
            },
            "miss_distance": {
                "astronomical": "0.0159882649",
                "lunar": "6.2194350461",
                "kilometers": "2391810.374035763",
                "miles": "1486202.0503210094"
            },
            "orbiting_body": "Earth"
        }
    ],
    "orbital_data": {
        "orbit_id": "18",
        "orbit_determination_date": "2017-04-06 09:13:11",
        "first_observation_date": "2004-02-12",
        "last_observation_date": "2004-02-24",
        "data_arc_in_days": 12,
        "observations_used": 108,
        "orbit_uncertainty": "7",
        "minimum_orbit_intersection": ".00414399",
        "jupiter_tisserand_invariant": "4.345",
        "epoch_osculation": "2459000.5",
        "eccentricity": ".4551883612327185",
        "semi_major_axis": "1.540891173268356",
        "inclination": "2.00170834671905",
        "ascending_node_longitude": "146.8497476010855",
        "orbital_period": "698.6447147353525",
        "perihelion_distance": ".8394954452703721",
        "perihelion_argument": "65.86382489501733",
        "aphelion_distance": "2.24228690126634",
        "perihelion_time": "2458692.583811801420",
        "mean_anomaly": "158.6640897920182",
        "mean_motion": ".515283365646541",
        "equinox": "J2000",
        "orbit_class": {
            "orbit_class_type": "APO",
            "orbit_class_description": "Near-Earth asteroid orbits which cross the Earth’s orbit similar to that of 1862 Apollo",
            "orbit_class_range": "a (semi-major axis) > 1.0 AU; q (perihelion) < 1.017 AU"
        }
    },
    "is_sentry_object": false
}